NORAD_CAT_ID,OBJECT_NAME,OBJECT_TYPE,EPOCH,MEAN_MOTION,ECCENTRICITY,INCLINATION,RA_OF_ASC_NODE,ARG_OF_PERICENTER,MEAN_ANOMALY,BSTAR,MEAN_MOTION_DOT,MEAN_MOTION_DDOT,TLE_LINE0,TLE_LINE1,TLE_LINE2,SEMIMAJOR_AXIS,PERIOD,APOGEE,PERIGEE,DECAYED
51799.0,STARLINK-3637,PAYLOAD,2022-03-28 14:00:01,15.60530611,0.0001336,53.2172,350.9001,55.6467,114.4614,-0.0092562,-0.0071279,0.0,0 STARLINK-3637,1 51799U 22017AH  22087.58335648 -.00712790  00000-0 -92562-2 0  9998,2 51799  53.2172 350.9001 0001336  55.6467 114.4614 15.60530611  3706,6764.26,92.276,387.029,385.222,0.0
51799.0,STARLINK-3637,PAYLOAD,2022-03-28 20:00:01,15.60149293,0.0001409999999999,53.2175,349.6891,51.3482,83.7966,-0.0094214,-0.0071474999999999,0.0,0 STARLINK-3637,1 51799U 22017AH  22087.83334491 -.00714750  00000-0 -94214-2 0  9995,2 51799  53.2175 349.6891 0001410  51.3482  83.7966 15.60149293  6134,6765.361999999999,92.299,388.181,386.274,0.0
51799.0,STARLINK-3637,PAYLOAD,2022-03-28 22:00:00,15.60020278,0.0001424,53.2174,349.2859,55.8721,187.5638,-0.0094317,-0.00712214,0.0,0 STARLINK-3637,1 51799U 22017AH  22087.91667824 -.00712214  00000-0 -94317-2 0  9990,2 51799  53.2174 349.2859 0001424  55.8721 187.5638 15.60020278  3680,6765.735,92.306,388.564,386.637,0.0
51799.0,STARLINK-3637,PAYLOAD,2022-03-29 14:00:01,15.59000478,0.0001206,53.2174,346.0573,50.8787,337.5062,-0.0098171,-0.00712794,0.0,0 STARLINK-3637,1 51799U 22017AH  22088.58334491 -.00712794  00000-0 -98171-2 0  9990,2 51799  53.2174 346.0573 0001206  50.8787 337.5062 15.59000478  3724,6768.686,92.367,391.367,389.734,0.0
51799.0,STARLINK-3637,PAYLOAD,2022-03-29 20:00:01,15.58621056,0.0001299,53.2178,344.8493,50.7766,301.3303,-0.010028,-0.00717263,0.0,0 STARLINK-3637,1 51799U 22017AH  22088.83334491 -.00717263  00000-0 -10028-1 0  9998,2 51799  53.2178 344.8493 0001299  50.7766 301.3303 15.58621056  6295,6769.784000000002,92.389,392.528,390.77,0.0
51799.0,STARLINK-3637,PAYLOAD,2022-03-29 22:00:00,15.58491673,0.0001465,53.2176,344.4471,45.305,54.6335,-0.010033,-0.0071438999999999,0.0,0 STARLINK-3637,1 51799U 22017AH  22088.91667824 -.00714390  00000-0 -10033-1 0  9990,2 51799  53.2176 344.4471 0001465  45.3050  54.6335 15.58491673  3702,6770.159000000002,92.397,393.016,391.032,0.0
51799.0,STARLINK-3637,PAYLOAD,2022-03-30 14:00:01,15.57472018,0.0001321,53.2174,341.2253,55.6046,185.671,-0.010422,-0.00713981,0.0,0 STARLINK-3637,1 51799U 22017AH  22089.58335648 -.00713981  00000-0 -10422-1 0  9997,2 51799  53.2174 341.2253 0001321  55.6046 185.6710 15.57472018  3661,6773.113,92.458,395.87300000000016,394.084,0.0
51799.0,STARLINK-3637,PAYLOAD,2022-03-30 20:00:01,15.57088577,0.0001506,53.2177,340.0204,52.8401,150.7153,-0.01055,-0.00712552,0.0,0 STARLINK-3637,1 51799U 22017AH  22089.83334491 -.00712552  00000-0 -10550-1 0  9995,2 51799  53.2177 340.0204 0001506  52.8401 150.7153 15.57088577  6442,6774.225,92.48,397.11,395.07,0.0
51799.0,STARLINK-3637,PAYLOAD,2022-03-30 22:00:00,15.56961486,0.0001354,53.2175,339.6191,52.0392,258.8874,-0.010613,-0.00713293,0.0,0 STARLINK-3637,1 51799U 22017AH  22089.91667824 -.00713293  00000-0 -10613-1 0  9996,2 51799  53.2175 339.6191 0001354  52.0392 258.8874 15.56961486  3727,6774.594,92.488,397.376,395.542,0.0
51799.0,STARLINK-3637,PAYLOAD,2022-03-31 14:00:01,15.55941852,0.0001134,53.2173,336.405,67.9154,20.6071,-0.011047,-0.0071451,0.0,0 STARLINK-3637,1 51799U 22017AH  22090.58334491 -.00714510  00000-0 -11047-1 0  9997,2 51799  53.2173 336.4050 0001134  67.9154  20.6071 15.55941852  3695,6777.553000000001,92.548,400.187,398.65,0.0
51799.0,STARLINK-3637,PAYLOAD,2022-03-31 20:00:01,15.55560938,0.0001378,53.2175,335.2027,47.877,1.6101,-0.011231,-0.00716088,0.0,0 STARLINK-3637,1 51799U 22017AH  22090.83334491 -.00716088  00000-0 -11231-1 0  9992,2 51799  53.2175 335.2027 0001378  47.8770   1.6101 15.55560938  6608,6778.66,92.571,401.459,399.59,0.0
51799.0,STARLINK-3637,PAYLOAD,2022-03-31 22:00:00,15.55430778,0.0001541,53.2173,334.8024,49.1008,107.2992,-0.011217,-0.00712137,0.0,0 STARLINK-3637,1 51799U 22017AH  22090.91667824 -.00712137  00000-0 -11217-1 0  9995,2 51799  53.2173 334.8024 0001541  49.1008 107.2992 15.55430778  3683,6779.038000000001,92.579,401.947,399.858,0.0
51799.0,STARLINK-3637,PAYLOAD,2022-04-01 14:00:01,15.54410595,0.0001262,53.2175,331.5954,62.7257,227.5934,-0.011638,-0.00711509,0.0,0 STARLINK-3637,1 51799U 22017AH  22091.58334491 -.00711509  00000-0 -11638-1 0  9999,2 51799  53.2175 331.5954 0001262  62.7257 227.5934 15.54410595  3707,6782.003000000002,92.64,404.724,403.013,0.0
51799.0,STARLINK-3637,PAYLOAD,2022-04-01 20:00:01,15.54028386,0.0001401,53.2177,330.3961,60.0353,189.8701,-0.011799,-0.00711325,0.0,0 STARLINK-3637,1 51799U 22017AH  22091.83334491 -.00711325  00000-0 -11799-1 0  9991,2 51799  53.2177 330.3961 0001401  60.0353 189.8701 15.54028386  6750,6783.115,92.662,405.931,404.03,0.0
51799.0,STARLINK-3637,PAYLOAD,2022-04-01 22:00:00,15.53902672,0.0001368,53.2176,329.9966,49.1509,307.2061,-0.011913,-0.00714586,0.0,0 STARLINK-3637,1 51799U 22017AH  22091.91667824 -.00714586  00000-0 -11913-1 0  9999,2 51799  53.2176 329.9966 0001368  49.1509 307.2061 15.53902672  3672,6783.481,92.67,406.274,404.418,0.0
51799.0,STARLINK-3637,PAYLOAD,2022-04-02 20:00:01,15.52499502,0.0001549,53.2176,325.6007,40.4439,44.3636,-0.012513,-0.00713258,0.0,0 STARLINK-3637,1 51799U 22017AH  22092.83334491 -.00713258  00000-0 -12513-1 0  9994,2 51799  53.2176 325.6007 0001549  40.4439  44.3636 15.52499502  6917,6787.568,92.754,410.484,408.382,0.0
51799.0,STARLINK-3637,PAYLOAD,2022-04-02 22:00:01,15.52371078,0.0001692,53.2175,325.2018,45.3913,145.4739,-0.012543,-0.00711805,0.0,0 STARLINK-3637,1 51799U 22017AH  22092.91668981 -.00711805  00000-0 -12543-1 0  9996,2 51799  53.2175 325.2018 0001692  45.3913 145.4739 15.52371078  3702,6787.941999999999,92.761,410.956,408.659,0.0
51799.0,STARLINK-3637,PAYLOAD,2022-04-03 20:00:01,15.50968386,0.0001520999999999,53.2174,320.8157,47.4295,226.8303,-0.013168,-0.0071955,0.0,0 STARLINK-3637,1 51799U 22017AH  22093.83335648 -.00719550  00000-0 -13168-1 0  9998,2 51799  53.2174 320.8157 0001521  47.4295 226.8303 15.50968386  7070,6792.034000000002,92.845,414.932,412.866,0.0
51799.0,STARLINK-3637,PAYLOAD,2022-04-03 22:00:00,15.50843902,0.0001513,53.2174,320.4181,41.6707,338.0565,-0.013341,-0.00725302,0.0,0 STARLINK-3637,1 51799U 22017AH  22093.91667824 -.00725302  00000-0 -13341-1 0  9996,2 51799  53.2174 320.4181 0001513  41.6707 338.0565 15.50843902  3694,6792.398,92.853,415.291,413.235,0.0
51799.0,STARLINK-3637,PAYLOAD,2022-04-04 12:00:00,15.49889135,0.0001258,53.2173,317.6281,58.6887,338.7079,-0.00012086,-7.305e-05,0.0,0 STARLINK-3637,1 51799U 22017AH  22094.50001157 -.00007305  00000-0 -12086-3 0  9996,2 51799  53.2173 317.6281 0001258  58.6887 338.7079 15.49889135  7175,6795.187,92.91,417.907,416.197,0.0
51799.0,STARLINK-3637,PAYLOAD,2022-04-04 14:00:01,15.4988672,0.0001369,53.2174,317.2299,57.3305,85.2953,-3.4044e-05,-2.383e-05,0.0,0 STARLINK-3637,1 51799U 22017AH  22094.58334491 -.00002383  00000-0 -34044-4 0  9994,2 51799  53.2174 317.2299 0001369  57.3305  85.2953 15.49886720  3702,6795.194,92.91,417.989,416.129,0.0
51799.0,STARLINK-3637,PAYLOAD,2022-04-04 22:00:00,15.49854364,0.0001598,53.2174,315.6341,56.0007,147.5407,0.0012602,0.00071652,0.0,0 STARLINK-3637,1 51799U 22017AH  22094.91667824  .00071652  00000-0  12602-2 0  9997,2 51799  53.2174 315.6341 0001598  56.0007 147.5407 15.49854364  3706,6795.2890000000025,92.912,418.24,416.068,0.0
51799.0,STARLINK-3637,PAYLOAD,2022-04-05 14:00:01,15.49885455,0.0001591,53.2173,312.4396,64.9459,260.4784,0.00074254,0.00041918,0.0,0 STARLINK-3637,1 51799U 22017AH  22095.58335648  .00041918  00000-0  74254-3 0  9991,2 51799  53.2173 312.4396 0001591  64.9459 260.4784 15.49885455  3700,6795.198,92.91,418.144,415.982,0.0
51799.0,STARLINK-3637,PAYLOAD,2022-04-05 20:00:01,15.49909687,0.0001706999999999,53.217,311.2465,59.1292,221.9267,-0.00010637,-6.489e-05,0.0,0 STARLINK-3637,1 51799U 22017AH  22095.83334491 -.00006489  00000-0 -10637-3 0  9995,2 51799  53.2170 311.2465 0001707  59.1292 221.9267 15.49909687  7381,6795.127,92.909,418.152,415.832,0.0
51799.0,STARLINK-3637,PAYLOAD,2022-04-05 22:00:00,15.49902929,0.0001751999999999,53.2171,310.8486,58.2093,328.0829,0.00020143,0.00011004,0.0,0 STARLINK-3637,1 51799U 22017AH  22095.91667824  .00011004  00000-0  20143-3 0  9993,2 51799  53.2171 310.8486 0001752  58.2093 328.0829 15.49902929  3706,6795.147,92.909,418.202,415.821,0.0
51799.0,STARLINK-3637,PAYLOAD,2022-04-06 12:00:00,15.49907,0.0001544,53.2166,308.0585,64.8123,338.1508,0.0010562999999999,0.00060007,0.0,0 STARLINK-3637,1 51799U 22017AH  22096.50001157  .00060007  00000-0  10563-2 0  9991,2 51799  53.2166 308.0585 0001544  64.8123 338.1508 15.49907000  7485,6795.135,92.909,418.049,415.951,0.0
51799.0,STARLINK-3637,PAYLOAD,2022-04-06 14:00:01,15.49935243,0.0001561,53.2168,307.6605,66.5949,81.5993,0.00031089,0.00017263,0.0,0 STARLINK-3637,1 51799U 22017AH  22096.58334491  .00017263  00000-0  31089-3 0  9992,2 51799  53.2168 307.6605 0001561  66.5949  81.5993 15.49935243  3695,6795.052,92.907,417.978,415.857,0.0
51799.0,STARLINK-3637,PAYLOAD,2022-04-06 20:00:01,15.49967838,0.0001551,53.2165,306.4673,56.9757,46.9549,-0.0018977,-0.00107012,0.0,0 STARLINK-3637,1 51799U 22017AH  22096.83334491 -.00107012  00000-0 -18977-2 0  9994,2 51799  53.2165 306.4673 0001551  56.9757  46.9549 15.49967838  7537,6794.956999999999,92.905,417.876,415.768,0.0
51799.0,STARLINK-3637,PAYLOAD,2022-04-06 22:00:00,15.49926316,0.0001571,53.2167,306.0693,54.4624,154.7238,-0.00079037,-0.00045118,0.0,0 STARLINK-3637,1 51799U 22017AH  22096.91667824 -.00045118  00000-0 -79037-3 0  9995,2 51799  53.2167 306.0693 0001571  54.4624 154.7238 15.49926316  3697,6795.078,92.908,418.011,415.876,0.0
